[{"OBJECT_NAME":"ARABSAT-5A","OBJECT_ID":"2010-032B","EPOCH":"2026-03-09T22:49:38.716320","MEAN_MOTION":1.00273463,"ECCENTRICITY":0.00029982,"INCLINATION":0.0839,"RA_OF_ASC_NODE":57.419,"ARG_OF_PERICENTER":322.243,"MEAN_ANOMALY":160.8544,"EPHEMERIS_TYPE":0,"CLASSIFICATION_TYPE":"U","NORAD_CAT_ID":36745,"ELEMENT_SET_NO":999,"REV_AT_EPOCH":5765,"BSTAR":0,"MEAN_MOTION_DOT":1.55e-6,"MEAN_MOTION_DDOT":0},{"OBJECT_NAME":"INDOSTAR 1","OBJECT_ID":"1997-071B","EPOCH":"2026-03-09T00:17:37.391712","MEAN_MOTION":1.00269804,"ECCENTRICITY":0.00049087,"INCLINATION":12.8423,"RA_OF_ASC_NODE":20.7805,"ARG_OF_PERICENTER":300.5666,"MEAN_ANOMALY":240.3196,"EPHEMERIS_TYPE":0,"CLASSIFICATION_TYPE":"U","NORAD_CAT_ID":25050,"ELEMENT_SET_NO":999,"REV_AT_EPOCH":10379,"BSTAR":0,"MEAN_MOTION_DOT":1.3e-6,"MEAN_MOTION_DDOT":0}]
